OBJECT_NAME,OBJECT_ID,EPOCH,MEAN_MOTION,ECCENTRICITY,INCLINATION,RA_OF_ASC_NODE,ARG_OF_PERICENTER,MEAN_ANOMALY,EPHEMERIS_TYPE,CLASSIFICATION_TYPE,NORAD_CAT_ID,ELEMENT_SET_NO,REV_AT_EPOCH,BSTAR,MEAN_MOTION_DOT,MEAN_MOTION_DDOT
ROCK,2024-149G,2026-06-27T18:35:15.612864,15.39976730,.00020205,97.3781,262.2415,166.4416,193.6885,0,U,60474,999,10389,.38969716E-3,.15465E-3,0
CONNECTA IOT-3,2024-149H,2026-06-27T22:53:33.999936,15.23631974,.00022634,97.3737,254.8132,192.7011,167.4170,0,U,60475,999,10344,.17992701E-3,.424E-4,0
QUBE,2024-149J,2026-06-27T18:41:21.206688,15.47694290,.00026158,97.3783,265.4186,166.6887,193.4433,0,U,60476,999,10410,.52835466E-3,.27287E-3,0
WREN-1,2024-149L,2026-06-27T18:41:10.974336,15.41961026,.00041406,97.3773,263.0043,205.6084,154.4959,0,U,60478,999,10395,.48495828E-3,.20592E-3,0
TOMORROW-S1,2024-149M,2026-06-27T21:47:35.844864,15.32865017,.00026237,97.3758,259.3469,175.0410,185.0859,0,U,60479,999,10373,.23724361E-3,.7453E-4,0
FLOCK 4BE-18,2024-149N,2026-06-27T18:54:59.764608,15.42187165,.00038608,97.3733,262.6298,196.3597,163.7526,0,U,60480,999,10394,.39356762E-3,.16813E-3,0
FLOCK 4BE-7,2024-149P,2026-06-27T17:47:05.558784,15.40733459,.00030647,97.3764,261.9018,195.5394,164.5759,0,U,60481,999,10387,.48338073E-3,.197E-3,0
TOMORROW-S2,2024-149T,2026-06-27T22:31:12.108576,15.32902574,.0002187,97.3823,259.8761,198.8667,161.2495,0,U,60485,999,10373,.24507296E-3,.771E-4,0
FLOCK 4BE-36,2024-149U,2026-06-27T18:05:26.554848,15.43031707,.00033493,97.3751,263.3100,205.8136,154.2945,0,U,60486,999,10398,.32635523E-3,.14321E-3,0
FLOCK 4BE-25,2024-149V,2026-06-27T22:42:46.609056,15.39106476,.0002398,97.3807,262.1706,183.8516,176.2711,0,U,60487,999,10389,.35325891E-3,.13614E-3,0
FLOCK 4BE-31,2024-149W,2026-06-27T18:36:08.115552,15.44493539,.00024235,97.3804,264.2201,196.5245,163.5925,0,U,60488,999,10401,.44569465E-3,.20595E-3,0
FLOCK 4BE-20,2024-149X,2026-06-27T17:16:59.184480,15.38324754,.00034775,97.3697,260.7947,203.7105,156.3981,0,U,60489,999,10383,.39424367E-3,.14824E-3,0
FLOCK 4BE-23,2024-149Y,2026-06-27T18:40:26.817024,15.37929183,.00029983,97.3787,261.2356,207.4371,152.6716,0,U,60490,999,10382,.36299695E-3,.13465E-3,0
FLOCK 4BE-17,2024-149AA,2026-06-27T19:30:09.654336,15.40080868,.00030719,97.3779,262.2669,193.5562,166.5603,0,U,60492,999,10389,.36913185E-3,.14695E-3,0
NUSAT-50 (NANCY ROMAN),2024-149AB,2026-06-27T23:02:35.542176,15.30037579,.00043394,97.3794,260.1413,143.9289,216.2245,0,U,60493,999,10377,.3213674E-3,.9272E-4,0
FLOCK 4BE-22,2024-149AC,2026-06-27T18:49:49.376928,15.41474729,.00032259,97.3738,262.4473,207.0434,153.0646,0,U,60494,999,10393,.37305685E-3,.15555E-3,0
FLOCK 4BE-34,2024-149AD,2026-06-27T19:14:39.340608,15.41456993,.0003115,97.3787,263.2939,214.8075,145.2969,0,U,60495,999,10396,.36255398E-3,.15104E-3,0
TYCHE,2024-149AE,2026-06-27T22:55:50.437632,15.25839733,.00017513,97.3758,256.6280,216.4032,143.7087,0,U,60496,999,10354,.17604333E-3,.4432E-4,0
FLOCK 4BE-32,2024-149AF,2026-06-27T22:59:33.386784,15.42509291,.0003405,97.3727,263.0032,210.5752,149.5298,0,U,60497,999,10399,.40911608E-3,.17671E-3,0
NUSAT-48 (HENRIETTA LEAVITT),2024-149AG,2026-06-27T22:46:09.769152,15.30039918,.00029993,97.3927,260.3922,219.6468,140.4554,0,U,60498,999,10378,.30473283E-3,.8787E-4,0
FLOCK 4BE-30,2024-149AH,2026-06-27T18:59:56.623776,15.59288368,.00055074,97.3775,264.6856,224.7674,135.3139,0,U,60499,999,10342,.1854117E-2,.148186E-2,0
NUSAT-49 (KLARA DAN VON NEUMANN),2024-149AJ,2026-06-27T11:14:34.207872,15.30107264,.00007961,97.3787,259.6851,234.0292,126.0875,0,U,60500,999,10370,.29327503E-3,.847E-4,0
FLOCK 4BE-11,2024-149AK,2026-06-27T16:30:07.415712,15.43315999,.00035005,97.3707,262.9699,212.6010,147.5022,0,U,60501,999,10397,.38303063E-3,.16991E-3,0
YAM-7,2024-149AN,2026-06-27T18:28:48.661824,15.31957821,.00020079,97.3791,258.9771,238.6326,121.4719,0,U,60504,999,10367,.23893104E-3,.7295E-4,0
FLOCK 4BE-24,2024-149AP,2026-06-27T19:16:22.655136,15.43454964,.00035841,97.3723,263.3468,225.1757,134.9200,0,U,60505,999,10400,.41053995E-3,.18306E-3,0
LUR-1,2024-149AQ,2026-06-27T18:31:57.727488,15.30237664,.0002552,97.3742,257.5238,260.5230,99.5722,0,U,60506,999,10359,.24412585E-3,.7066E-4,0
TANAGER-1,2024-149AR,2026-06-27T18:47:08.787840,15.44772622,.00034436,97.2408,273.0040,258.6880,101.3982,0,U,60507,999,10467,.9714951E-5,.369E-5,0
EAGLEEYE,2024-149AS,2026-06-27T19:14:39.630912,15.72934700,.00048769,97.3725,272.7396,215.0961,144.9982,0,U,60508,999,10460,.78821064E-3,.108046E-2,0
