ROCK                    
1 60474U 24149G   26178.77448626  .00015465  00000+0  38970-3 0  9999
2 60474  97.3781 262.2415 0002020 166.4416 193.6885 15.39976730103893
CONNECTA IOT-3          
1 60475U 24149H   26178.95386574  .00004240  00000+0  17993-3 0  9994
2 60475  97.3737 254.8132 0002263 192.7011 167.4170 15.23631974103448
QUBE                    
1 60476U 24149J   26178.77871767  .00027287  00000+0  52835-3 0  9998
2 60476  97.3783 265.4186 0002615 166.6887 193.4433 15.47694290104100
WREN-1                  
1 60478U 24149L   26178.77859924  .00020592  00000+0  48496-3 0  9991
2 60478  97.3773 263.0043 0004140 205.6084 154.4959 15.41961026103955
TOMORROW-S1             
1 60479U 24149M   26178.90805376  .00007453  00000+0  23724-3 0  9997
2 60479  97.3758 259.3469 0002623 175.0410 185.0859 15.32865017103734
FLOCK 4BE-18            
1 60480U 24149N   26178.78819172  .00016813  00000+0  39357-3 0  9993
2 60480  97.3733 262.6298 0003860 196.3597 163.7526 15.42187165103941
FLOCK 4BE-7             
1 60481U 24149P   26178.74103656  .00019700  00000+0  48338-3 0  9990
2 60481  97.3764 261.9018 0003064 195.5394 164.5759 15.40733459103870
TOMORROW-S2             
1 60485U 24149T   26178.93833459  .00007710  00000+0  24507-3 0  9996
2 60485  97.3823 259.8761 0002187 198.8667 161.2495 15.32902574103738
FLOCK 4BE-36            
1 60486U 24149U   26178.75377957  .00014321  00000+0  32636-3 0  9991
2 60486  97.3751 263.3100 0003349 205.8136 154.2945 15.43031707103989
FLOCK 4BE-25            
1 60487U 24149V   26178.94637279  .00013614  00000+0  35326-3 0  9992
2 60487  97.3807 262.1706 0002398 183.8516 176.2711 15.39106476103897
FLOCK 4BE-31            
1 60488U 24149W   26178.77509393  .00020595  00000+0  44569-3 0  9994
2 60488  97.3804 264.2201 0002423 196.5245 163.5925 15.44493539104013
FLOCK 4BE-20            
1 60489U 24149X   26178.72012945  .00014824  00000+0  39424-3 0  9994
2 60489  97.3697 260.7947 0003477 203.7105 156.3981 15.38324754103834
FLOCK 4BE-23            
1 60490U 24149Y   26178.77808816  .00013465  00000+0  36300-3 0  9991
2 60490  97.3787 261.2356 0002998 207.4371 152.6716 15.37929183103829
FLOCK 4BE-17            
1 60492U 24149AA  26178.81261174  .00014695  00000+0  36913-3 0  9994
2 60492  97.3779 262.2669 0003071 193.5562 166.5603 15.40080868103898
NUSAT-50 (NANCY ROMAN)  
1 60493U 24149AB  26178.96013359  .00009272  00000+0  32137-3 0  9990
2 60493  97.3794 260.1413 0004339 143.9289 216.2245 15.30037579103775
FLOCK 4BE-22            
1 60494U 24149AC  26178.78459927  .00015555  00000+0  37306-3 0  9990
2 60494  97.3738 262.4473 0003225 207.0434 153.0646 15.41474729103937
FLOCK 4BE-34            
1 60495U 24149AD  26178.80184422  .00015104  00000+0  36255-3 0  9991
2 60495  97.3787 263.2939 0003115 214.8075 145.2969 15.41456993103960
TYCHE                   
1 60496U 24149AE  26178.95544488  .00004432  00000+0  17604-3 0  9999
2 60496  97.3758 256.6280 0001751 216.4032 143.7087 15.25839733103546
FLOCK 4BE-32            
1 60497U 24149AF  26178.95802531  .00017671  00000+0  40912-3 0  9993
2 60497  97.3727 263.0032 0003405 210.5752 149.5298 15.42509291103991
NUSAT-48 (HENRIETTA LE*)
1 60498U 24149AG  26178.94872418  .00008787  00000+0  30473-3 0  9993
2 60498  97.3927 260.3922 0002999 219.6468 140.4554 15.30039918103786
FLOCK 4BE-30            
1 60499U 24149AH  26178.79162759  .00148186  00000+0  18541-2 0  9996
2 60499  97.3775 264.6856 0005507 224.7674 135.3139 15.59288368103424
NUSAT-49 (KLARA DAN VO*)
1 60500U 24149AJ  26178.46845148  .00008470  00000+0  29328-3 0  9990
2 60500  97.3787 259.6851 0000796 234.0292 126.0875 15.30107264103703
FLOCK 4BE-11            
1 60501U 24149AK  26178.68758583  .00016991  00000+0  38303-3 0  9991
2 60501  97.3707 262.9699 0003500 212.6010 147.5022 15.43315999103970
YAM-7                   
1 60504U 24149AN  26178.77000766  .00007295  00000+0  23893-3 0  9992
2 60504  97.3791 258.9771 0002007 238.6326 121.4719 15.31957821103675
FLOCK 4BE-24            
1 60505U 24149AP  26178.80303999  .00018306  00000+0  41054-3 0  9995
2 60505  97.3723 263.3468 0003584 225.1757 134.9200 15.43454964104009
LUR-1                   
1 60506U 24149AQ  26178.77219592  .00007066  00000+0  24413-3 0  9998
2 60506  97.3742 257.5238 0002552 260.5230  99.5722 15.30237664103594
TANAGER-1               
1 60507U 24149AR  26178.78274060  .00000369  00000+0  97150-5 0  9990
2 60507  97.2408 273.0040 0003443 258.6880 101.3982 15.44772622104679
EAGLEEYE                
1 60508U 24149AS  26178.80184758  .00108046  00000+0  78821-3 0  9991
2 60508  97.3725 272.7396 0004876 215.0961 144.9982 15.72934700104605
